STARLINK-31035          
1 58532U 23192B   24238.46762399 -.00004634  00000+0 -14453-3 0  9993
2 58532  53.1606 149.2543 0001294  83.0563 277.0585 15.30174898 40065
STARLINK-31036          
1 58533U 23192C   24238.45719150  .00000186  00000+0  18393-4 0  9994
2 58533  53.1595 149.9503 0000907  84.1765 275.9339 15.30192923 40054
STARLINK-30936          
1 58534U 23192D   24238.46464525  .00002138  00000+0  74792-4 0  9993
2 58534  53.1598 149.9892 0001327  75.0883 285.0266 15.34226245 41248
STARLINK-31032          
1 58535U 23192E   24238.48794690 -.00001122  00000+0 -22217-4 0  9994
2 58535  53.1610 150.1221 0001205  91.6361 268.4779 15.34216821 40055
STARLINK-31037          
1 58536U 23192F   24238.45681030  .00003388  00000+0  13492-3 0  9993
2 58536  53.1569 149.2361 0002149  72.9644 287.1591 15.28028710 40069
STARLINK-31041          
1 58537U 23192G   24238.47862826 -.00001053  00000+0 -20171-4 0  9992
2 58537  53.1606 150.0679 0001642  90.5158 269.6033 15.34214835 40054
STARLINK-31014          
1 58538U 23192H   24238.45998733 -.00000724  00000+0 -10395-4 0  9999
2 58538  53.1584 149.9500 0000784 100.5513 259.5578 15.34213318 40050
STARLINK-31055          
1 58539U 23192J   24238.45532703 -.00000069  00000+0  91099-5 0  9993
2 58539  53.1605 149.9213 0000987  77.8154 282.2959 15.34219949 40050
STARLINK-31019          
1 58540U 23192K   24238.46929906 -.00013753  00000+0 -39892-3 0  9997
2 58540  53.1587 150.0081 0000686  80.2149 279.8930 15.34222592 40054
STARLINK-31045          
1 58541U 23192L   24238.50647490 -.00002243  00000+0 -13733-3 0  9996
2 58541  53.1605 171.6904 0001272  82.2951 277.8183 15.04930307 40936
STARLINK-31030          
1 58542U 23192M   24238.45099874 -.00000243  00000+0  39345-5 0  9994
2 58542  53.1579 149.8958 0001261  72.3308 287.7832 15.34217568 40051
STARLINK-31049          
1 58543U 23192N   24238.18544071 -.00002072  00000+0 -50537-4 0  9997
2 58543  53.1604 151.0817 0000985  98.3518 261.7596 15.34215682 40013
STARLINK-31048          
1 58544U 23192P   24238.47079838  .00003896  00000+0  14372-3 0  9993
2 58544  53.1605 149.2631 0001210 108.8958 251.2174 15.30168634 40066
STARLINK-31057          
1 58545U 23192Q   24238.58334491  .00031294  00000+0  10659-2 0  9991
2 58545  53.1583 149.2431 0000924 105.8621 281.9781 15.30150567  5853
STARLINK-31050          
1 58546U 23192R   24238.45085256  .00000824  00000+0  39938-4 0  9998
2 58546  53.1594 149.8896 0000920  68.2055 291.9043 15.30192150 41188
STARLINK-31063          
1 58547U 23192S   24238.47800186 -.00000002  00000+0  11128-4 0  9998
2 58547  53.1610 147.8860 0001205  96.5696 263.5444 15.34208808 40089
STARLINK-31016          
1 58548U 23192T   24238.91667824 -.00091480  00000+0 -31104-2 0  9993
2 58548  53.1594 147.2261 0001590  83.5836 196.7224 15.30241311 41322
STARLINK-31053          
1 58549U 23192U   24238.45402387 -.00001222  00000+0 -29161-4 0  9991
2 58549  53.1580 149.9137 0001084  86.2803 273.8321 15.30185020 40059
STARLINK-31056          
1 58550U 23192V   24238.47712704 -.00001566  00000+0 -40781-4 0  9994
2 58550  53.1602 149.3474 0001095  85.5591 274.5535 15.30186237 40069
STARLINK-30999          
1 58551U 23192W   24238.44374226  .00000689  00000+0  31664-4 0  9998
2 58551  53.1608 140.5038 0001178  79.3041 280.8095 15.34224394 40183
STARLINK-31046          
1 58552U 23192X   24238.46141091  .00001223  00000+0  53417-4 0  9998
2 58552  53.1600 149.9554 0000791 100.6163 259.4927 15.30189796 40059
STARLINK-31044          
1 58589U 23200A   24238.58428407 -.00002275  00000+0 -15343-3 0  9995
2 58589  43.0043 338.7683 0001284 276.5671  83.5025 15.02517825 39212
STARLINK-31062          
1 58590U 23200B   24238.60240165 -.00002376  00000+0 -16086-3 0  9990
2 58590  43.0045 340.6315 0001117 275.3669  84.7046 15.02536318 39202
STARLINK-31043          
1 58591U 23200C   24238.30984480  .00011417  00000+0  85840-3 0  9991
2 58591  43.0048 341.8821 0001354 262.6083  97.4605 15.02556935 39134
STARLINK-31096          
1 58592U 23200D   24238.63001626  .00001723  00000+0  14254-3 0  9990
2 58592  43.0022 339.9841 0000858 213.9957 146.0830 15.02545182 39216
STARLINK-31094          
1 58593U 23200E   24238.57440843 -.00000078  00000+0  92803-5 0  9993
2 58593  43.0037 339.5713 0000794 270.8636  89.2115 15.02535983 39180
STARLINK-31075          
1 58594U 23200F   24238.57107956  .00001951  00000+0  15947-3 0  9991
2 58594  43.0023 339.5428 0001091 263.8956  96.1762 15.02535463 39185
STARLINK-30857          
1 58595U 23200G   24238.63089887  .00000155  00000+0  26548-4 0  9996
2 58595  43.0042 339.1314 0001536 260.2057  99.8612 15.02527090 39220
STARLINK-31059          
1 58596U 23200H   24238.45675852  .00001325  00000+0  60461-4 0  9992
2 58596  43.0030 298.5895 0001110 243.2399 116.8338 15.25921099 39652
STARLINK-31087          
1 58597U 23200J   24238.62423513 -.00000674  00000+0 -34809-4 0  9992
2 58597  43.0039 339.0818 0001015 254.0032 106.0699 15.02534690 39097
STARLINK-31079          
1 58598U 23200K   24238.62090945 -.00000457  00000+0 -18795-4 0  9997
2 58598  43.0031 339.0557 0001069 262.2960  97.7761 15.02532714 39226
STARLINK-31072          
1 58599U 23200L   24238.58334491  .00090961  00000+0  33228-2 0  9993
2 58599  43.0032 302.7683 0000846 272.3047 199.4887 15.27098276  5864
STARLINK-31052          
1 58600U 23200M   24238.55110123  .00000019  00000+0  16456-4 0  9998
2 58600  43.0056 339.3908 0001634 264.2972  95.7684 15.02530929 39209
STARLINK-31074          
1 58601U 23200N   24238.54776815 -.00000135  00000+0  51234-5 0  9998
2 58601  43.0079 339.3698 0001842 279.8145  80.2490 15.02530849 39188
STARLINK-31071          
1 58602U 23200P   24238.86642930 -.00002880  00000+0 -10038-3 0  9999
2 58602  42.9992 291.2665 0000601  43.4582 316.6316 15.25889341 39680
STARLINK-31080          
1 58603U 23200Q   24238.54443676  .00000309  00000+0  37922-4 0  9995
2 58603  43.0015 339.3421 0001304 266.5858  93.4836 15.02535148 38996
STARLINK-31088          
1 58604U 23200R   24238.74053235  .00000225  00000+0  31724-4 0  9997
2 58604  43.0027 338.2247 0001147 264.6207  95.4504 15.02548639 39237
STARLINK-31038          
1 58605U 23200S   24238.33501805  .00003843  00000+0  29939-3 0  9997
2 58605  43.0044 340.3512 0001432 259.4224 100.6457 15.02534051 39154
STARLINK-31082          
1 58606U 23200T   24238.33834635  .00003129  00000+0  24662-3 0  9993
2 58606  43.0041 340.3721 0002162 273.9980  86.0616 15.02538963 39155
STARLINK-31069          
1 58607U 23200U   24238.59759904 -.00000105  00000+0  73152-5 0  9999
2 58607  43.0043 338.8844 0000236 313.2242  46.8581 15.02531510 39195
STARLINK-31067          
1 58608U 23200V   24238.59426842  .00001008  00000+0  89647-4 0  9999
2 58608  43.0039 338.8578 0001005 279.0213  81.0516 15.02533126 39214
STARLINK-31085          
1 58609U 23200W   24238.59094200 -.00000788  00000+0 -43235-4 0  9998
2 58609  43.0040 338.8332 0001610 275.4464  84.6194 15.02529269 39220
STARLINK-31089          
1 58610U 23200X   24238.58106593 -.00000995  00000+0 -58565-4 0  9990
2 58610  43.0035 339.5521 0002101 273.4185  86.6417 15.02529566 39217
STARLINK-31061          
1 58611U 23200Y   24238.58761481  .00000845  00000+0  77649-4 0  9990
2 58611  43.0048 338.8080 0001238 268.2562  91.8139 15.02525815 39206
STARLINK-31054          
1 58619U 23203B   24238.38797179  .00000333  00000+0  22574-4 0  9991
2 58619  43.0004 354.7950 0001032 273.0646  87.0087 15.25895521 37743
STARLINK-31118          
1 58620U 23203C   24238.59525602  .00007511  00000+0  18671-3 0  9993
2 58620  43.0028 341.6835 0001706 251.6620 108.4051 15.40730513 39141
STARLINK-31134          
1 58621U 23203D   24238.63847631  .00007204  00000+0  28486-3 0  9992
2 58621  43.0002 353.2153 0000978 261.6517  98.4224 15.25922811 38957
STARLINK-31133          
1 58622U 23203E   24238.31797304 -.00005259  00000+0 -19147-3 0  9993
2 58622  43.0032 355.1219 0002296 250.0305 110.0298 15.25884509 37735
STARLINK-31068          
1 58623U 23203F   24238.38117812 -.00000831  00000+0 -21920-4 0  9995
2 58623  43.0030 354.7377 0001253 272.5034  87.5673 15.25902283 37740
STARLINK-31129          
1 58624U 23203G   24238.37891329  .00004803  00000+0  19327-3 0  9995
2 58624  43.0001 354.7139 0000428 233.9427 126.1384 15.25915910 37745
STARLINK-30774          
1 58625U 23203H   24238.63395257  .00008464  00000+0  33285-3 0  9990
2 58625  43.0012 353.1757 0001644 280.2927  79.7739 15.25927387 39018
STARLINK-31086          
1 58626U 23203J   24238.61120400  .00002638  00000+0  11063-3 0  9992
2 58626  42.9991 352.1601 0000299 205.3469 154.7367 15.25913718 39018
STARLINK-31065          
1 58627U 23203K   24238.61558210  .00002805  00000+0  11701-3 0  9992
2 58627  43.0001 351.3224 0001185 282.5296  77.5422 15.25919242 38915
STARLINK-31092          
1 58628U 23203L   24238.76260573  .00012999  00000+0  50552-3 0  9993
2 58628  43.0013 352.4204 0000830 258.4876 101.5882 15.25933427 38976
STARLINK-31091          
1 58629U 23203M   24238.62719652  .00003241  00000+0  13384-3 0  9998
2 58629  43.0003 353.1245 0000531 223.7582 136.3227 15.25871354 38841
STARLINK-31084          
1 58630U 23203N   24238.62490387  .00005804  00000+0  23148-3 0  9997
2 58630  43.0032 353.1083 0002280 283.4764  76.5833 15.25921637 39011
STARLINK-31064          
1 58631U 23203P   24238.62037745  .00000832  00000+0  41617-4 0  9991
2 58631  43.0028 353.0742 0001582 290.7321  69.3360 15.25923359 38952
STARLINK-31081          
1 58632U 23203Q   24238.61812871  .00057570  00000+0  21896-2 0  9998
2 58632  43.0036 353.0620 0000747 269.6744  90.4021 15.25969259 38951
STARLINK-31022          
1 58633U 23203R   24238.62264921  .00000786  00000+0  39877-4 0  9994
2 58633  42.9989 353.0904 0000689 299.8551  60.2231 15.25909543 39014
